[{"OBJECT_NAME":"FLOCK 4G-17","OBJECT_ID":"2025-009CA","EPOCH":"2026-03-09T22:51:51.984864","MEAN_MOTION":15.27385439,"ECCENTRICITY":0.00036407,"INCLINATION":97.3966,"RA_OF_ASC_NODE":151.0229,"ARG_OF_PERICENTER":339.6132,"MEAN_ANOMALY":20.4962,"EPHEMERIS_TYPE":0,"CLASSIFICATION_TYPE":"U","NORAD_CAT_ID":62681,"ELEMENT_SET_NO":999,"REV_AT_EPOCH":12139,"BSTAR":0.00053710713,"MEAN_MOTION_DOT":0.00014342,"MEAN_MOTION_DDOT":0},{"OBJECT_NAME":"STARLINK-35917","OBJECT_ID":"2025-263U","EPOCH":"2026-03-09T22:15:31.756896","MEAN_MOTION":15.27591879,"ECCENTRICITY":0.00013982,"INCLINATION":42.9987,"RA_OF_ASC_NODE":349.4932,"ARG_OF_PERICENTER":264.7433,"MEAN_ANOMALY":95.3259,"EPHEMERIS_TYPE":0,"CLASSIFICATION_TYPE":"U","NORAD_CAT_ID":66503,"ELEMENT_SET_NO":999,"REV_AT_EPOCH":1893,"BSTAR":0.0013425708,"MEAN_MOTION_DOT":0.00036881,"MEAN_MOTION_DDOT":0}]
